ORBCOMM FM20            
1 25416U 98046D   25308.10214089  .00001093  00000+0  40833-3 0  9991
2 25416  44.9938 238.5259 0002393 312.4844  47.5802 14.37534561424391
ORBCOMM FM15            
1 25418U 98046F   25308.07777441  .00001438  00000+0  50745-3 0  9991
2 25418  44.9965 233.8917 0005429 298.2237  61.8063 14.38988870424397
ORBCOMM FM14            
1 25419U 98046G   25308.05901054  .00001479  00000+0  51630-3 0  9998
2 25419  44.9947 231.7998 0004159 298.2311  61.8117 14.39391725424361
ORBCOMM FM13            
1 25420U 98046H   25308.08954301  .00001313  00000+0  47617-3 0  9993
2 25420  44.9970 241.0311 0006023 277.2392  82.7771 14.38051691423372
ORBCOMM FM21            
1 25475U 98053A   25307.78225139  .00001011  00000+0  38027-3 0  9997
2 25475  45.0093 328.2806 0003300 245.5272 114.5233 14.37667228417331
ORBCOMM FM22            
1 25476U 98053B   25307.78387094  .00001379  00000+0  49009-3 0  9996
2 25476  45.0082 321.9581 0004691 234.7544 125.2866 14.38810474417375
