<?xml version="1.0" encoding="UTF-8"?>
<ndm xmlns:xsi="http://www.w3.org/2001/XMLSchema-instance" xsi:noNamespaceSchemaLocation="https://sanaregistry.org/r/ndmxml_unqualified/ndmxml-2.0.0-master-2.0.xsd">
<omm id="CCSDS_OMM_VERS" version="2.0">
<header><CREATION_DATE/><ORIGINATOR/></header><body><segment><metadata><OBJECT_NAME>ORBCOMM FM20</OBJECT_NAME><OBJECT_ID>1998-046D</OBJECT_ID><CENTER_NAME>EARTH</CENTER_NAME><REF_FRAME>TEME</REF_FRAME><TIME_SYSTEM>UTC</TIME_SYSTEM><MEAN_ELEMENT_THEORY>SGP4</MEAN_ELEMENT_THEORY></metadata><data><meanElements><EPOCH>2025-11-04T02:27:04.973760</EPOCH><MEAN_MOTION>14.37534561</MEAN_MOTION><ECCENTRICITY>.00023934</ECCENTRICITY><INCLINATION>44.9938</INCLINATION><RA_OF_ASC_NODE>238.5259</RA_OF_ASC_NODE><ARG_OF_PERICENTER>312.4844</ARG_OF_PERICENTER><MEAN_ANOMALY>47.5802</MEAN_ANOMALY></meanElements><tleParameters><EPHEMERIS_TYPE>0</EPHEMERIS_TYPE><CLASSIFICATION_TYPE>U</CLASSIFICATION_TYPE><NORAD_CAT_ID>25416</NORAD_CAT_ID><ELEMENT_SET_NO>999</ELEMENT_SET_NO><REV_AT_EPOCH>42439</REV_AT_EPOCH><BSTAR>.40833339E-3</BSTAR><MEAN_MOTION_DOT>.1093E-4</MEAN_MOTION_DOT><MEAN_MOTION_DDOT>0</MEAN_MOTION_DDOT></tleParameters></data></segment></body></omm>
<omm id="CCSDS_OMM_VERS" version="2.0">
<header><CREATION_DATE/><ORIGINATOR/></header><body><segment><metadata><OBJECT_NAME>ORBCOMM FM15</OBJECT_NAME><OBJECT_ID>1998-046F</OBJECT_ID><CENTER_NAME>EARTH</CENTER_NAME><REF_FRAME>TEME</REF_FRAME><TIME_SYSTEM>UTC</TIME_SYSTEM><MEAN_ELEMENT_THEORY>SGP4</MEAN_ELEMENT_THEORY></metadata><data><meanElements><EPOCH>2025-11-04T01:51:59.709024</EPOCH><MEAN_MOTION>14.38988870</MEAN_MOTION><ECCENTRICITY>.00054291</ECCENTRICITY><INCLINATION>44.9965</INCLINATION><RA_OF_ASC_NODE>233.8917</RA_OF_ASC_NODE><ARG_OF_PERICENTER>298.2237</ARG_OF_PERICENTER><MEAN_ANOMALY>61.8063</MEAN_ANOMALY></meanElements><tleParameters><EPHEMERIS_TYPE>0</EPHEMERIS_TYPE><CLASSIFICATION_TYPE>U</CLASSIFICATION_TYPE><NORAD_CAT_ID>25418</NORAD_CAT_ID><ELEMENT_SET_NO>999</ELEMENT_SET_NO><REV_AT_EPOCH>42439</REV_AT_EPOCH><BSTAR>.50745427E-3</BSTAR><MEAN_MOTION_DOT>.1438E-4</MEAN_MOTION_DOT><MEAN_MOTION_DDOT>0</MEAN_MOTION_DDOT></tleParameters></data></segment></body></omm>
<omm id="CCSDS_OMM_VERS" version="2.0">
<header><CREATION_DATE/><ORIGINATOR/></header><body><segment><metadata><OBJECT_NAME>ORBCOMM FM14</OBJECT_NAME><OBJECT_ID>1998-046G</OBJECT_ID><CENTER_NAME>EARTH</CENTER_NAME><REF_FRAME>TEME</REF_FRAME><TIME_SYSTEM>UTC</TIME_SYSTEM><MEAN_ELEMENT_THEORY>SGP4</MEAN_ELEMENT_THEORY></metadata><data><meanElements><EPOCH>2025-11-04T01:24:58.511520</EPOCH><MEAN_MOTION>14.39391725</MEAN_MOTION><ECCENTRICITY>.00041591</ECCENTRICITY><INCLINATION>44.9947</INCLINATION><RA_OF_ASC_NODE>231.7998</RA_OF_ASC_NODE><ARG_OF_PERICENTER>298.2311</ARG_OF_PERICENTER><MEAN_ANOMALY>61.8117</MEAN_ANOMALY></meanElements><tleParameters><EPHEMERIS_TYPE>0</EPHEMERIS_TYPE><CLASSIFICATION_TYPE>U</CLASSIFICATION_TYPE><NORAD_CAT_ID>25419</NORAD_CAT_ID><ELEMENT_SET_NO>999</ELEMENT_SET_NO><REV_AT_EPOCH>42436</REV_AT_EPOCH><BSTAR>.51630355E-3</BSTAR><MEAN_MOTION_DOT>.1479E-4</MEAN_MOTION_DOT><MEAN_MOTION_DDOT>0</MEAN_MOTION_DDOT></tleParameters></data></segment></body></omm>
<omm id="CCSDS_OMM_VERS" version="2.0">
<header><CREATION_DATE/><ORIGINATOR/></header><body><segment><metadata><OBJECT_NAME>ORBCOMM FM13</OBJECT_NAME><OBJECT_ID>1998-046H</OBJECT_ID><CENTER_NAME>EARTH</CENTER_NAME><REF_FRAME>TEME</REF_FRAME><TIME_SYSTEM>UTC</TIME_SYSTEM><MEAN_ELEMENT_THEORY>SGP4</MEAN_ELEMENT_THEORY></metadata><data><meanElements><EPOCH>2025-11-04T02:08:56.516064</EPOCH><MEAN_MOTION>14.38051691</MEAN_MOTION><ECCENTRICITY>.00060231</ECCENTRICITY><INCLINATION>44.9970</INCLINATION><RA_OF_ASC_NODE>241.0311</RA_OF_ASC_NODE><ARG_OF_PERICENTER>277.2392</ARG_OF_PERICENTER><MEAN_ANOMALY>82.7771</MEAN_ANOMALY></meanElements><tleParameters><EPHEMERIS_TYPE>0</EPHEMERIS_TYPE><CLASSIFICATION_TYPE>U</CLASSIFICATION_TYPE><NORAD_CAT_ID>25420</NORAD_CAT_ID><ELEMENT_SET_NO>999</ELEMENT_SET_NO><REV_AT_EPOCH>42337</REV_AT_EPOCH><BSTAR>.47617117E-3</BSTAR><MEAN_MOTION_DOT>.1313E-4</MEAN_MOTION_DOT><MEAN_MOTION_DDOT>0</MEAN_MOTION_DDOT></tleParameters></data></segment></body></omm>
<omm id="CCSDS_OMM_VERS" version="2.0">
<header><CREATION_DATE/><ORIGINATOR/></header><body><segment><metadata><OBJECT_NAME>ORBCOMM FM21</OBJECT_NAME><OBJECT_ID>1998-053A</OBJECT_ID><CENTER_NAME>EARTH</CENTER_NAME><REF_FRAME>TEME</REF_FRAME><TIME_SYSTEM>UTC</TIME_SYSTEM><MEAN_ELEMENT_THEORY>SGP4</MEAN_ELEMENT_THEORY></metadata><data><meanElements><EPOCH>2025-11-03T18:46:26.520096</EPOCH><MEAN_MOTION>14.37667228</MEAN_MOTION><ECCENTRICITY>.00033004</ECCENTRICITY><INCLINATION>45.0093</INCLINATION><RA_OF_ASC_NODE>328.2806</RA_OF_ASC_NODE><ARG_OF_PERICENTER>245.5272</ARG_OF_PERICENTER><MEAN_ANOMALY>114.5233</MEAN_ANOMALY></meanElements><tleParameters><EPHEMERIS_TYPE>0</EPHEMERIS_TYPE><CLASSIFICATION_TYPE>U</CLASSIFICATION_TYPE><NORAD_CAT_ID>25475</NORAD_CAT_ID><ELEMENT_SET_NO>999</ELEMENT_SET_NO><REV_AT_EPOCH>41733</REV_AT_EPOCH><BSTAR>.38026845E-3</BSTAR><MEAN_MOTION_DOT>.1011E-4</MEAN_MOTION_DOT><MEAN_MOTION_DDOT>0</MEAN_MOTION_DDOT></tleParameters></data></segment></body></omm>
<omm id="CCSDS_OMM_VERS" version="2.0">
<header><CREATION_DATE/><ORIGINATOR/></header><body><segment><metadata><OBJECT_NAME>ORBCOMM FM22</OBJECT_NAME><OBJECT_ID>1998-053B</OBJECT_ID><CENTER_NAME>EARTH</CENTER_NAME><REF_FRAME>TEME</REF_FRAME><TIME_SYSTEM>UTC</TIME_SYSTEM><MEAN_ELEMENT_THEORY>SGP4</MEAN_ELEMENT_THEORY></metadata><data><meanElements><EPOCH>2025-11-03T18:48:46.449216</EPOCH><MEAN_MOTION>14.38810474</MEAN_MOTION><ECCENTRICITY>.00046916</ECCENTRICITY><INCLINATION>45.0082</INCLINATION><RA_OF_ASC_NODE>321.9581</RA_OF_ASC_NODE><ARG_OF_PERICENTER>234.7544</ARG_OF_PERICENTER><MEAN_ANOMALY>125.2866</MEAN_ANOMALY></meanElements><tleParameters><EPHEMERIS_TYPE>0</EPHEMERIS_TYPE><CLASSIFICATION_TYPE>U</CLASSIFICATION_TYPE><NORAD_CAT_ID>25476</NORAD_CAT_ID><ELEMENT_SET_NO>999</ELEMENT_SET_NO><REV_AT_EPOCH>41737</REV_AT_EPOCH><BSTAR>.49009203E-3</BSTAR><MEAN_MOTION_DOT>.1379E-4</MEAN_MOTION_DOT><MEAN_MOTION_DDOT>0</MEAN_MOTION_DDOT></tleParameters></data></segment></body></omm>

</ndm>
